*******************************************************************************
JPL/HORIZONS               19521 Chaos (1998 WH24)         2013-Dec-01 19:35:58
Rec #: 19521 (+COV)   Soln.date: 2013-Aug-05_19:19:00    # obs: 110 (1991-2007)
 
FK5/J2000.0 helio. ecliptic osc. elements (au, days, deg., period=Julian yrs): 
 
  EPOCH=  2451784.5 ! 2000-Aug-28.00 (CT)          Residual RMS= .36443        
   EC= .109354033543115    QR= 41.11012755090054   TP= 2463447.3688337859      
   OM= 49.95254037162284   W=  54.19917955884716   IN= 11.99994972475949       
   A= 46.15765309581137    MA= 323.3441000036672   ADIST= 51.2051786407222     
   PER= 313.59837          N= .003142957           ANGMOM= .116169184          
   DAN= 42.86375           DDN= 48.7224            L= 103.5490579              
   B= 9.708012099999999    MOID= 40.13980103       TP= 2032-Aug-02.8688337859  
 
Asteroid physical parameters (km, seconds, rotational period in hours):        
   GM= n.a.                RAD= n.a.               ROTPER= n.a.                
   H= 4.8                  G= .150                 B-V= n.a.                   
                           ALBEDO= n.a.            STYP= n.a.                  
 
ASTEROID comments: 
1: soln ref.= JPL#9, OCC=3
2: source=ORB
*******************************************************************************
 

 

*******************************************************************************
Ephemeris / WWW_USER Sun Dec  1 19:35:58 2013 Pasadena, USA      / Horizons    
*******************************************************************************
Target body name: 19521 Chaos (1998 WH24)         {source: JPL#9}
Center body name: Earth (399)                     {source: DE-0431LE-0431}
Center-site name: San Pedro Martir
*******************************************************************************
Start time      : A.D. 2013-Jan-01 00:00:00.0000 UT      
Stop  time      : A.D. 2014-Dec-31 00:00:00.0000 UT      
Step-size       : 1440 minutes
*******************************************************************************
Target pole/equ : No model available
Target radii    : (unavailable)                                                
Center geodetic : 244.536700,31.0434585,2.8281109 {E-lon(deg),Lat(deg),Alt(km)}
Center cylindric: 244.536700,5471.93108,3271.4810 {E-lon(deg),Dxy(km),Dz(km)}
Center pole/equ : High-precision EOP model        {East-longitude +}
Center radii    : 6378.1 x 6378.1 x 6356.8 km     {Equator, meridian, pole}    
Target primary  : Sun
Vis. interferer : MOON (R_eq= 1737.400) km        {source: DE-0431LE-0431}
Rel. light bend : Sun, EARTH                      {source: DE-0431LE-0431}
Rel. lght bnd GM: 1.3271E+11, 3.9860E+05 km^3/s^2                              
Small-body perts: Yes                             {source: SB431-BIG16}
Atmos refraction: NO (AIRLESS)
RA format       : DEG
Time format     : BOTH
EOP file        : eop.131128.p140219                                           
EOP coverage    : DATA-BASED 1962-JAN-20 TO 2013-NOV-28. PREDICTS-> 2014-FEB-18
Units conversion: 1 au= 149597870.700 km, c= 299792.458 km/s, 1 day= 86400.0 s 
Table cut-offs 1: Elevation (-90.0deg=NO ),Airmass (>38.000=NO), Daylight (NO )
Table cut-offs 2: Solar Elongation (  0.0,180.0=NO ),Local Hour Angle( 0.0=NO )
*******************************************************************************
Initial FK5/J2000.0 heliocentric ecliptic osculating elements (au, days, deg.):
  EPOCH=  2451784.5 ! 2000-Aug-28.00 (CT)          Residual RMS= .36443        
   EC= .109354033543115    QR= 41.11012755090054   TP= 2463447.3688337859      
   OM= 49.95254037162284   W=  54.19917955884716   IN= 11.99994972475949       
Asteroid physical parameters (km, seconds, rotational period in hours):        
   GM= n.a.                RAD= n.a.               ROTPER= n.a.                
   H= 4.8                  G= .150                 B-V= n.a.                   
                           ALBEDO= n.a.            STYP= n.a.                  
************************************************************************************************************
 Date__(UT)__HR:MN Date_________JDUT     R.A._(J2000.0)_DEC. dRA*cosD d(DEC)/dt            delta      deldot
************************************************************************************************************
$$SOE
 2014-Dec-16 00:00 2457007.500000000 *    76.61813  28.82150 -3.08604  -0.18962 40.4964484683511   2.4623044
 2014-Dec-17 00:00 2457008.500000000 *    76.59457  28.82003 -3.07949  -0.19615 40.4982163243825   2.9937900
 2014-Dec-18 00:00 2457009.500000000 *    76.57106  28.81851 -3.07169  -0.20258 40.5002920533019   3.5248571
 2014-Dec-19 00:00 2457010.500000000 *    76.54763  28.81696 -3.06264  -0.20888 40.5026752893482   4.0552786
 2014-Dec-20 00:00 2457011.500000000 *    76.52428  28.81536 -3.05232  -0.21507 40.5053655258533   4.5847931
 2014-Dec-21 00:00 2457012.500000000 *    76.50101  28.81371 -3.04073  -0.22113 40.5083620930046   5.1130972
 2014-Dec-22 00:00 2457013.500000000 *m   76.47785  28.81203 -3.02785  -0.22705 40.5116641328511   5.6398443
 2014-Dec-23 00:00 2457014.500000000 *m   76.45480  28.81031 -3.01369  -0.23283 40.5152705766170   6.1646544
 2014-Dec-24 00:00 2457015.500000000 *m   76.43187  28.80855 -2.99827  -0.23847 40.5191801310734   6.6871353
 2014-Dec-25 00:00 2457016.500000000 *m   76.40906  28.80676 -2.98159  -0.24395 40.5233912798091   7.2069121
 2014-Dec-26 00:00 2457017.500000000 *m   76.38640  28.80492 -2.96368  -0.24927 40.5279023013242   7.7236542
 2014-Dec-27 00:00 2457018.500000000 *m   76.36388  28.80306 -2.94458  -0.25442 40.5327113006574   8.2370937
 2014-Dec-28 00:00 2457019.500000000 *m   76.34152  28.80115 -2.92433  -0.25941 40.5378162475777   8.7470303
 2014-Dec-29 00:00 2457020.500000000 *m   76.31932  28.79922 -2.90294  -0.26423 40.5432150139733   9.2533240
 2014-Dec-30 00:00 2457021.500000000 *m   76.29730  28.79725 -2.88046  -0.26889 40.5489054053611   9.7558828
 2014-Dec-31 00:00 2457022.500000000 *m   76.27546  28.79526 -2.85691  -0.27338 40.5548851845034  10.2546486
